GLOBALSTAR M035 [-]     
1 25851U 99037A   24047.44040812 -.00000071  00000+0 -29718-3 0  9998
2 25851  51.9958  60.4411 0013576 271.9677 238.4733 11.04529035 42474
GLOBALSTAR M032 [-]     
1 25852U 99037B   24047.87422119 -.00000099  00000+0 -10321-2 0  9999
2 25852  51.9939 278.2344 0010495  68.7149 291.4771 11.19049670 80348
GLOBALSTAR M051 [-]     
1 25853U 99037C   24047.48233635 -.00000095  00000+0 -56768-3 0  9992
2 25853  51.9786 134.9955 0001918  83.0332 277.0697 11.42195193 76776
GLOBALSTAR M030 [-]     
1 25854U 99037D   24047.92933399 -.00000079  00000+0 -85419-4 0  9994
2 25854  51.9907 330.9437 0003201 258.6062 101.4395 11.55088329 93851
GLOBALSTAR M026 [-]     
1 25873U 99041B   24047.55859638  .00000025  00000+0  32655-2 0  9993
2 25873  51.9989 183.2662 0001925 142.1464 299.6301 11.06835230 94603
GLOBALSTAR M043 [-]     
1 25874U 99041C   24047.57875203 -.00000089  00000+0 -62675-3 0  9990
2 25874  51.9390 139.2296 0013146 199.9925 264.6014 11.25674035 68074
GLOBALSTAR M028 [-]     
1 25875U 99041D   24047.80841991 -.00000064  00000+0  23881-3 0  9992
2 25875  51.9599 203.3188 0064494  95.3142 265.5081 12.50550742129328
